{
  "type": "FeatureCollection",
  "features": [
    {
      "type": "Feature",
      "properties": {
        "norad_id": 27954,
        "name": "GALAXY 13 (HORIZONS-1)",
        "group": "intelsat",
        "lat": 0.8855692549976223,
        "lon": 149.9442895830785,
        "alt_km": 35791.17557246589,
        "timestamp": "2025-12-27T13:34:48.957275+00:00",
        "meta_object_name": "GALAXY 13 (HORIZONS-1)",
        "meta_object_id": "2003-044A",
        "meta_epoch": "2025-12-27T05:26:26.263968",
        "meta_mean_motion": 1.00272827,
        "meta_eccentricity": 0.00022884,
        "meta_inclination": 0.9743,
        "meta_ra_of_asc_node": 86.284,
        "meta_arg_of_pericenter": 188.5611,
        "meta_mean_anomaly": 112.7003,
        "meta_ephemeris_type": 0,
        "meta_classification_type": "U",
        "meta_norad_cat_id": 27954,
        "meta_element_set_no": 999,
        "meta_rev_at_epoch": 4484,
        "meta_bstar": 0,
        "meta_mean_motion_dot": 1.55e-06,
        "meta_mean_motion_ddot": 0,
        "tle_line1": "1 27954U 03044A   25361.22669287  .00000155  00000+0  00000+0 0  9996",
        "tle_line2": "2 27954   0.9743  86.2840 0002288 188.5611 112.7003  1.00272827 44843"
      },
      "geometry": {
        "type": "Point",
        "coordinates": [
          149.9442895830785,
          0.8855692549976223
        ]
      }
    },
    {
      "type": "Feature",
      "properties": {
        "norad_id": 28358,
        "name": "INTELSAT 10-02",
        "group": "intelsat",
        "lat": -0.030319784627990547,
        "lon": -60.97119401525086,
        "alt_km": 35781.13716452005,
        "timestamp": "2025-12-27T13:34:48.957300+00:00",
        "meta_object_name": "INTELSAT 10-02",
        "meta_object_id": "2004-022A",
        "meta_epoch": "2025-12-27T04:26:17.024928",
        "meta_mean_motion": 1.00270123,
        "meta_eccentricity": 0.00012817,
        "meta_inclination": 0.0163,
        "meta_ra_of_asc_node": 51.3497,
        "meta_arg_of_pericenter": 251.566,
        "meta_mean_anomaly": 218.6151,
        "meta_ephemeris_type": 0,
        "meta_classification_type": "U",
        "meta_norad_cat_id": 28358,
        "meta_element_set_no": 999,
        "meta_rev_at_epoch": 7883,
        "meta_bstar": 0,
        "meta_mean_motion_dot": 1.1e-07,
        "meta_mean_motion_ddot": 0,
        "tle_line1": "1 28358U 04022A   25361.18491927  .00000011  00000+0  00000+0 0  9992",
        "tle_line2": "2 28358   0.0163  51.3497 0001281 251.5660 218.6151  1.00270123 78830"
      },
      "geometry": {
        "type": "Point",
        "coordinates": [
          -60.97119401525086,
          -0.030319784627990547
        ]
      }
    },
    {
      "type": "Feature",
      "properties": {
        "norad_id": 28626,
        "name": "XM-3 (RHYTHM)",
        "group": "intelsat",
        "lat": -0.21532934737108672,
        "lon": -16.209974066972812,
        "alt_km": 36150.90436734449,
        "timestamp": "2025-12-27T13:34:48.957315+00:00",
        "meta_object_name": "XM-3 (RHYTHM)",
        "meta_object_id": "2005-008A",
        "meta_epoch": "2025-12-27T06:22:05.934144",
        "meta_mean_motion": 0.98950711,
        "meta_eccentricity": 0.00023042,
        "meta_inclination": 0.2102,
        "meta_ra_of_asc_node": 82.3505,
        "meta_arg_of_pericenter": 270.8272,
        "meta_mean_anomaly": 243.5776,
        "meta_ephemeris_type": 0,
        "meta_classification_type": "U",
        "meta_norad_cat_id": 28626,
        "meta_element_set_no": 999,
        "meta_rev_at_epoch": 4089,
        "meta_bstar": 0,
        "meta_mean_motion_dot": 7.2e-07,
        "meta_mean_motion_ddot": 0,
        "tle_line1": "1 28626U 05008A   25361.26534646  .00000072  00000+0  00000+0 0  9997",
        "tle_line2": "2 28626   0.2102  82.3505 0002304 270.8272 243.5776  0.98950711 40896"
      },
      "geometry": {
        "type": "Point",
        "coordinates": [
          -16.209974066972812,
          -0.21532934737108672
        ]
      }
    },
    {
      "type": "Feature",
      "properties": {
        "norad_id": 28659,
        "name": "DIRECTV 8",
        "group": "intelsat",
        "lat": 0.0165878888919177,
        "lon": -179.08282241022624,
        "alt_km": 35789.33601700192,
        "timestamp": "2025-12-27T13:34:48.957327+00:00",
        "meta_object_name": "DIRECTV 8",
        "meta_object_id": "2005-019A",
        "meta_epoch": "2025-12-26T09:14:16.477152",
        "meta_mean_motion": 1.00271765,
        "meta_eccentricity": 0.0003134,
        "meta_inclination": 0.0135,
        "meta_ra_of_asc_node": 57.3028,
        "meta_arg_of_pericenter": 228.1398,
        "meta_mean_anomaly": 189.2168,
        "meta_ephemeris_type": 0,
        "meta_classification_type": "U",
        "meta_norad_cat_id": 28659,
        "meta_element_set_no": 999,
        "meta_rev_at_epoch": 7534,
        "meta_bstar": 0,
        "meta_mean_motion_dot": 2.3e-07,
        "meta_mean_motion_ddot": 0,
        "tle_line1": "1 28659U 05019A   25360.38491293  .00000023  00000+0  00000+0 0  9993",
        "tle_line2": "2 28659   0.0135  57.3028 0003134 228.1398 189.2168  1.00271765 75343"
      },
      "geometry": {
        "type": "Point",
        "coordinates": [
          -179.08282241022624,
          0.0165878888919177
        ]
      }
    },
    {
      "type": "Feature",
      "properties": {
        "norad_id": 28702,
        "name": "GALAXY 28 (G-28)",
        "group": "intelsat",
        "lat": 1.8609634928157,
        "lon": -139.71995226321354,
        "alt_km": 35680.98430319381,
        "timestamp": "2025-12-27T13:34:48.957338+00:00",
        "meta_object_name": "GALAXY 28 (G-28)",
        "meta_object_id": "2005-022A",
        "meta_epoch": "2025-12-27T05:37:26.570784",
        "meta_mean_motion": 1.00599457,
        "meta_eccentricity": 0.00034148,
        "meta_inclination": 2.8569,
        "meta_ra_of_asc_node": 81.1133,
        "meta_arg_of_pericenter": 161.6106,
        "meta_mean_anomaly": 217.4788,
        "meta_ephemeris_type": 0,
        "meta_classification_type": "U",
        "meta_norad_cat_id": 28702,
        "meta_element_set_no": 999,
        "meta_rev_at_epoch": 5025,
        "meta_bstar": 0,
        "meta_mean_motion_dot": -2.35e-06,
        "meta_mean_motion_ddot": 0,
        "tle_line1": "1 28702U 05022A   25361.23433531 -.00000235  00000+0  00000+0 0  9998",
        "tle_line2": "2 28702   2.8569  81.1133 0003414 161.6106 217.4788  1.00599457 50250"
      },
      "geometry": {
        "type": "Point",
        "coordinates": [
          -139.71995226321354,
          1.8609634928157
        ]
      }
    },
    {
      "type": "Feature",
      "properties": {
        "norad_id": 29236,
        "name": "GALAXY 16 (G-16)",
        "group": "intelsat",
        "lat": -0.009465309349492702,
        "lon": -159.05070643360864,
        "alt_km": 35784.02219001703,
        "timestamp": "2025-12-27T13:34:48.957350+00:00",
        "meta_object_name": "GALAXY 16 (G-16)",
        "meta_object_id": "2006-023A",
        "meta_epoch": "2025-12-27T05:40:54.876864",
        "meta_mean_motion": 1.00271202,
        "meta_eccentricity": 0.00027459,
        "meta_inclination": 0.0429,
        "meta_ra_of_asc_node": 195.3646,
        "meta_arg_of_pericenter": 84.5486,
        "meta_mean_anomaly": 162.2754,
        "meta_ephemeris_type": 0,
        "meta_classification_type": "U",
        "meta_norad_cat_id": 29236,
        "meta_element_set_no": 999,
        "meta_rev_at_epoch": 7124,
        "meta_bstar": 0,
        "meta_mean_motion_dot": -1.04e-06,
        "meta_mean_motion_ddot": 0,
        "tle_line1": "1 29236U 06023A   25361.23674626 -.00000104  00000+0  00000+0 0  9990",
        "tle_line2": "2 29236   0.0429 195.3646 0002745  84.5486 162.2754  1.00271202 71242"
      },
      "geometry": {
        "type": "Point",
        "coordinates": [
          -159.05070643360864,
          -0.009465309349492702
        ]
      }
    },
    {
      "type": "Feature",
      "properties": {
        "norad_id": 29494,
        "name": "DIRECTV 9S",
        "group": "intelsat",
        "lat": 1.7783219791345395,
        "lon": -161.2329487413953,
        "alt_km": 35784.2138251416,
        "timestamp": "2025-12-27T13:34:48.957362+00:00",
        "meta_object_name": "DIRECTV 9S",
        "meta_object_id": "2006-043A",
        "meta_epoch": "2025-12-27T05:40:17.437152",
        "meta_mean_motion": 1.00271318,
        "meta_eccentricity": 0.00031286,
        "meta_inclination": 1.9756,
        "meta_ra_of_asc_node": 83.0552,
        "meta_arg_of_pericenter": 198.0551,
        "meta_mean_anomaly": 158.7284,
        "meta_ephemeris_type": 0,
        "meta_classification_type": "U",
        "meta_norad_cat_id": 29494,
        "meta_element_set_no": 999,
        "meta_rev_at_epoch": 4965,
        "meta_bstar": 0,
        "meta_mean_motion_dot": -9.2e-07,
        "meta_mean_motion_ddot": 0,
        "tle_line1": "1 29494U 06043A   25361.23631293 -.00000092  00000+0  00000+0 0  9997",
        "tle_line2": "2 29494   1.9756  83.0552 0003128 198.0551 158.7284  1.00271318 49656"
      },
      "geometry": {
        "type": "Point",
        "coordinates": [
          -161.2329487413953,
          1.7783219791345395
        ]
      }
    }
  ]
}